[{"OBJECT_NAME":"STARLINK-4121","OBJECT_ID":"2022-076S","EPOCH":"2026-03-09T06:55:06.189312","MEAN_MOTION":15.08836378,"ECCENTRICITY":0.00013769,"INCLINATION":53.2165,"RA_OF_ASC_NODE":95.9222,"ARG_OF_PERICENTER":92.1134,"MEAN_ANOMALY":268.0016,"EPHEMERIS_TYPE":0,"CLASSIFICATION_TYPE":"U","NORAD_CAT_ID":53002,"ELEMENT_SET_NO":999,"REV_AT_EPOCH":20278,"BSTAR":-8.446069e-6,"MEAN_MOTION_DOT":-4.22e-6,"MEAN_MOTION_DDOT":0},{"OBJECT_NAME":"CZ-6A DEB","OBJECT_ID":"2024-126C","EPOCH":"2026-03-09T22:45:09.534528","MEAN_MOTION":15.08339588,"ECCENTRICITY":0.00034995,"INCLINATION":97.8272,"RA_OF_ASC_NODE":88.0703,"ARG_OF_PERICENTER":249.9832,"MEAN_ANOMALY":110.1019,"EPHEMERIS_TYPE":0,"CLASSIFICATION_TYPE":"U","NORAD_CAT_ID":60213,"ELEMENT_SET_NO":999,"REV_AT_EPOCH":9177,"BSTAR":0.0010886629,"MEAN_MOTION_DOT":0.00016868,"MEAN_MOTION_DDOT":0}]
